[{"OBJECT_NAME":"STARLINK-4166","OBJECT_ID":"2022-086BB","EPOCH":"2026-03-09T12:41:30.097248","MEAN_MOTION":15.08836395,"ECCENTRICITY":0.00012352,"INCLINATION":53.2178,"RA_OF_ASC_NODE":179.631,"ARG_OF_PERICENTER":84.9193,"MEAN_ANOMALY":275.194,"EPHEMERIS_TYPE":0,"CLASSIFICATION_TYPE":"U","NORAD_CAT_ID":53291,"ELEMENT_SET_NO":999,"REV_AT_EPOCH":20123,"BSTAR":2.4432e-6,"MEAN_MOTION_DOT":-2.49e-6,"MEAN_MOTION_DDOT":0},{"OBJECT_NAME":"YUNYAO-1 48","OBJECT_ID":"2025-059F","EPOCH":"2026-03-09T22:24:05.789376","MEAN_MOTION":15.10574052,"ECCENTRICITY":0.00165064,"INCLINATION":97.6074,"RA_OF_ASC_NODE":250.9983,"ARG_OF_PERICENTER":137.6901,"MEAN_ANOMALY":222.5605,"EPHEMERIS_TYPE":0,"CLASSIFICATION_TYPE":"U","NORAD_CAT_ID":63349,"ELEMENT_SET_NO":999,"REV_AT_EPOCH":5331,"BSTAR":0.00030523847,"MEAN_MOTION_DOT":4.989e-5,"MEAN_MOTION_DDOT":0}]
